GLOBALSTAR M024         
1 25883U 99043A   24272.65790301 -.00000116  00000+0 -18295-2 0  9995
2 25883  51.9993 250.7226 0001794  24.9251 146.2837 11.10162367 85813
GLOBALSTAR M027         
1 25884U 99043B   24272.82434831 -.00000023  00000+0  15226-2 0  9995
2 25884  52.0234 320.9271 0020913 289.1472  70.7057 11.04369586112369
GLOBALSTAR M054         
1 25885U 99043C   24273.03074580 -.00000167  00000+0 -24306-2 0  9990
2 25885  52.0115 131.5886 0006632  90.2463  80.5437 11.39205173 89610
GLOBALSTAR M053         
1 25886U 99043D   24272.68271076 -.00000061  00000+0  21624-3 0  9993
2 25886  51.9985  65.0053 0003435  13.3594 108.9093 11.27658894 89948
GLOBALSTAR M050         
1 25908U 99049B   24272.97670594 -.00000064  00000+0  27766-3 0  9990
2 25908  51.9976 113.8588 0008255 228.6875 279.9395 12.07440396116632
GLOBALSTAR M033         
1 25909U 99049C   24272.64894394  .00000056  00000+0  14250-2 0  9994
2 25909  51.9943   4.6596 0013296  88.2322 272.0048 12.20281909503818
GLOBALSTAR M055         
1 25910U 99049D   24272.79290002 -.00000065  00000+0  25326-3 0  9996
2 25910  52.0044  27.7203 0006406 311.6290  48.4012 12.29409801136356
